[{"OBJECT_NAME":"COSMOS 2455","OBJECT_ID":"2009-063A","EPOCH":"2026-03-09T13:30:30.596832","MEAN_MOTION":13.97040814,"ECCENTRICITY":0.000641,"INCLINATION":67.1475,"RA_OF_ASC_NODE":135.1864,"ARG_OF_PERICENTER":244.9363,"MEAN_ANOMALY":115.1057,"EPHEMERIS_TYPE":0,"CLASSIFICATION_TYPE":"U","NORAD_CAT_ID":36095,"ELEMENT_SET_NO":999,"REV_AT_EPOCH":83121,"BSTAR":3.8777e-5,"MEAN_MOTION_DOT":-2.1e-7,"MEAN_MOTION_DDOT":0},{"OBJECT_NAME":"METEOR 2-17 DEB","OBJECT_ID":"1988-005AG","EPOCH":"2026-03-05T14:04:07.280832","MEAN_MOTION":14.01524407,"ECCENTRICITY":0.0013681,"INCLINATION":82.529,"RA_OF_ASC_NODE":2.7562,"ARG_OF_PERICENTER":161.2244,"MEAN_ANOMALY":319.2155,"EPHEMERIS_TYPE":0,"CLASSIFICATION_TYPE":"U","NORAD_CAT_ID":35372,"ELEMENT_SET_NO":999,"REV_AT_EPOCH":64949,"BSTAR":0.0022813,"MEAN_MOTION_DOT":3.465e-5,"MEAN_MOTION_DDOT":0}]
